{
  "type": "FeatureCollection",
  "features": [
    {
      "type": "Feature",
      "properties": {
        "norad_id": 66801,
        "name": "STARLINK-36080",
        "group": "last-30-days",
        "lat": 14.805170934032391,
        "lon": -128.09129220301207,
        "alt_km": 357.24788188983894,
        "timestamp": "2025-12-18T17:50:13.700379+00:00",
        "meta_object_name": "STARLINK-36080",
        "meta_object_id": "2025-278L",
        "meta_epoch": "2025-12-18T06:00:02.999808",
        "meta_mean_motion": 15.7202076,
        "meta_eccentricity": 0.00016416,
        "meta_inclination": 42.9992,
        "meta_ra_of_asc_node": 218.4052,
        "meta_arg_of_pericenter": 273.163,
        "meta_mean_anomaly": 196.3399,
        "meta_ephemeris_type": 0,
        "meta_classification_type": "U",
        "meta_norad_cat_id": 66801,
        "meta_element_set_no": 999,
        "meta_rev_at_epoch": 384,
        "meta_bstar": -0.01636227,
        "meta_mean_motion_dot": -0.01953747,
        "meta_mean_motion_ddot": 0,
        "tle_line1": "1 66801U 25278L   25352.25003472 -.01953747  00000+0 -16362-1 0  9991",
        "tle_line2": "2 66801  42.9992 218.4052 0001641 273.1630 196.3399 15.72020760  3849"
      },
      "geometry": {
        "type": "Point",
        "coordinates": [
          -128.09129220301207,
          14.805170934032391
        ]
      }
    },
    {
      "type": "Feature",
      "properties": {
        "norad_id": 66802,
        "name": "STARLINK-35604",
        "group": "last-30-days",
        "lat": 7.140301599283404,
        "lon": -136.81308431397173,
        "alt_km": 357.9854275195639,
        "timestamp": "2025-12-18T17:50:13.700395+00:00",
        "meta_object_name": "STARLINK-35604",
        "meta_object_id": "2025-278M",
        "meta_epoch": "2025-12-18T06:00:02.999808",
        "meta_mean_motion": 15.72018372,
        "meta_eccentricity": 0.00014547,
        "meta_inclination": 42.9991,
        "meta_ra_of_asc_node": 218.4354,
        "meta_arg_of_pericenter": 278.2642,
        "meta_mean_anomaly": 179.741,
        "meta_ephemeris_type": 0,
        "meta_classification_type": "U",
        "meta_norad_cat_id": 66802,
        "meta_element_set_no": 999,
        "meta_rev_at_epoch": 384,
        "meta_bstar": -0.016357496,
        "meta_mean_motion_dot": -0.01952915,
        "meta_mean_motion_ddot": 0,
        "tle_line1": "1 66802U 25278M   25352.25003472 -.01952915  00000+0 -16357-1 0  9992",
        "tle_line2": "2 66802  42.9991 218.4354 0001454 278.2642 179.7410 15.72018372  3840"
      },
      "geometry": {
        "type": "Point",
        "coordinates": [
          -136.81308431397173,
          7.140301599283404
        ]
      }
    },
    {
      "type": "Feature",
      "properties": {
        "norad_id": 66803,
        "name": "STARLINK-35565",
        "group": "last-30-days",
        "lat": 9.721114896028949,
        "lon": -133.95508681399832,
        "alt_km": 357.8830872064091,
        "timestamp": "2025-12-18T17:50:13.700405+00:00",
        "meta_object_name": "STARLINK-35565",
        "meta_object_id": "2025-278N",
        "meta_epoch": "2025-12-18T06:00:02.999808",
        "meta_mean_motion": 15.72019067,
        "meta_eccentricity": 0.00014525,
        "meta_inclination": 42.9991,
        "meta_ra_of_asc_node": 218.4255,
        "meta_arg_of_pericenter": 270.6202,
        "meta_mean_anomaly": 191.2149,
        "meta_ephemeris_type": 0,
        "meta_classification_type": "U",
        "meta_norad_cat_id": 66803,
        "meta_element_set_no": 999,
        "meta_rev_at_epoch": 393,
        "meta_bstar": -0.016332112,
        "meta_mean_motion_dot": -0.01950284,
        "meta_mean_motion_ddot": 0,
        "tle_line1": "1 66803U 25278N   25352.25003472 -.01950284  00000+0 -16332-1 0  9993",
        "tle_line2": "2 66803  42.9991 218.4255 0001452 270.6202 191.2149 15.72019067  3937"
      },
      "geometry": {
        "type": "Point",
        "coordinates": [
          -133.95508681399832,
          9.721114896028949
        ]
      }
    },
    {
      "type": "Feature",
      "properties": {
        "norad_id": 66804,
        "name": "STARLINK-36038",
        "group": "last-30-days",
        "lat": 11.004352316504521,
        "lon": -132.50764938539535,
        "alt_km": 357.5682947379237,
        "timestamp": "2025-12-18T17:50:13.700417+00:00",
        "meta_object_name": "STARLINK-36038",
        "meta_object_id": "2025-278P",
        "meta_epoch": "2025-12-18T06:00:02.999808",
        "meta_mean_motion": 15.72020789,
        "meta_eccentricity": 0.00016103,
        "meta_inclination": 42.9991,
        "meta_ra_of_asc_node": 218.4214,
        "meta_arg_of_pericenter": 277.298,
        "meta_mean_anomaly": 186.4528,
        "meta_ephemeris_type": 0,
        "meta_classification_type": "U",
        "meta_norad_cat_id": 66804,
        "meta_element_set_no": 999,
        "meta_rev_at_epoch": 384,
        "meta_bstar": -0.0163507,
        "meta_mean_motion_dot": -0.01952502,
        "meta_mean_motion_ddot": 0,
        "tle_line1": "1 66804U 25278P   25352.25003472 -.01952502  00000+0 -16351-1 0  9990",
        "tle_line2": "2 66804  42.9991 218.4214 0001610 277.2980 186.4528 15.72020789  3845"
      },
      "geometry": {
        "type": "Point",
        "coordinates": [
          -132.50764938539535,
          11.004352316504521
        ]
      }
    },
    {
      "type": "Feature",
      "properties": {
        "norad_id": 66805,
        "name": "STARLINK-36049",
        "group": "last-30-days",
        "lat": 13.54579059762995,
        "lon": -129.57911911679892,
        "alt_km": 357.32147403792624,
        "timestamp": "2025-12-18T17:50:13.700428+00:00",
        "meta_object_name": "STARLINK-36049",
        "meta_object_id": "2025-278Q",
        "meta_epoch": "2025-12-18T06:00:02.999808",
        "meta_mean_motion": 15.72019596,
        "meta_eccentricity": 0.00014882,
        "meta_inclination": 42.999,
        "meta_ra_of_asc_node": 218.4111,
        "meta_arg_of_pericenter": 275.2873,
        "meta_mean_anomaly": 192.3009,
        "meta_ephemeris_type": 0,
        "meta_classification_type": "U",
        "meta_norad_cat_id": 66805,
        "meta_element_set_no": 999,
        "meta_rev_at_epoch": 384,
        "meta_bstar": -0.016361918,
        "meta_mean_motion_dot": -0.01953499,
        "meta_mean_motion_ddot": 0,
        "tle_line1": "1 66805U 25278Q   25352.25003472 -.01953499  00000+0 -16362-1 0  9999",
        "tle_line2": "2 66805  42.9990 218.4111 0001488 275.2873 192.3009 15.72019596  3847"
      },
      "geometry": {
        "type": "Point",
        "coordinates": [
          -129.57911911679892,
          13.54579059762995
        ]
      }
    },
    {
      "type": "Feature",
      "properties": {
        "norad_id": 66806,
        "name": "STARLINK-36069",
        "group": "last-30-days",
        "lat": 12.278595821040907,
        "lon": -131.05115685187735,
        "alt_km": 357.42477537983086,
        "timestamp": "2025-12-18T17:50:13.700449+00:00",
        "meta_object_name": "STARLINK-36069",
        "meta_object_id": "2025-278R",
        "meta_epoch": "2025-12-18T06:00:02.999808",
        "meta_mean_motion": 15.72019031,
        "meta_eccentricity": 0.00014618,
        "meta_inclination": 42.999,
        "meta_ra_of_asc_node": 218.416,
        "meta_arg_of_pericenter": 276.9313,
        "meta_mean_anomaly": 188.7401,
        "meta_ephemeris_type": 0,
        "meta_classification_type": "U",
        "meta_norad_cat_id": 66806,
        "meta_element_set_no": 999,
        "meta_rev_at_epoch": 363,
        "meta_bstar": -0.016352002,
        "meta_mean_motion_dot": -0.01952389,
        "meta_mean_motion_ddot": 0,
        "tle_line1": "1 66806U 25278R   25352.25003472 -.01952389  00000+0 -16352-1 0  9996",
        "tle_line2": "2 66806  42.9990 218.4160 0001461 276.9313 188.7401 15.72019031  3636"
      },
      "geometry": {
        "type": "Point",
        "coordinates": [
          -131.05115685187735,
          12.278595821040907
        ]
      }
    },
    {
      "type": "Feature",
      "properties": {
        "norad_id": 66807,
        "name": "STARLINK-36000",
        "group": "last-30-days",
        "lat": 16.054055969148273,
        "lon": -126.58462742144091,
        "alt_km": 357.07965535924814,
        "timestamp": "2025-12-18T17:50:13.700462+00:00",
        "meta_object_name": "STARLINK-36000",
        "meta_object_id": "2025-278S",
        "meta_epoch": "2025-12-18T06:00:02.999808",
        "meta_mean_motion": 15.7202163,
        "meta_eccentricity": 0.00016061,
        "meta_inclination": 42.9994,
        "meta_ra_of_asc_node": 218.4017,
        "meta_arg_of_pericenter": 273.4441,
        "meta_mean_anomaly": 197.9742,
        "meta_ephemeris_type": 0,
        "meta_classification_type": "U",
        "meta_norad_cat_id": 66807,
        "meta_element_set_no": 999,
        "meta_rev_at_epoch": 390,
        "meta_bstar": -0.016357985,
        "meta_mean_motion_dot": -0.0195333,
        "meta_mean_motion_ddot": 0,
        "tle_line1": "1 66807U 25278S   25352.25003472 -.01953330  00000+0 -16358-1 0  9990",
        "tle_line2": "2 66807  42.9994 218.4017 0001606 273.4441 197.9742 15.72021630  3905"
      },
      "geometry": {
        "type": "Point",
        "coordinates": [
          -126.58462742144091,
          16.054055969148273
        ]
      }
    }
  ]
}